196P/Tichy,e,19.2931,24.1370,12.1470,3.805056,0.1327891,0.42864329,320.0792,01/02.0/2022,2000,g 13.5,4.0
# From MPC 94676
197P/LINEAR,e,25.5294,66.3729,188.7493,2.867942,0.2029311,0.62944634,291.0622,01/02.0/2022,2000,g 16.5,2.0
# From NK 1596
198P/ODAS,e,1.3387,358.2491,69.1782,3.597885,0.1444220,0.44369043,161.0326,01/02.0/2022,2000,g  9.0,4.0
# From MPC 75725
199P/Shoemaker,e,24.9319,92.3675,191.7137,5.890516,0.0689404,0.50585995,319.8023,01/02.0/2022,2000,g 10.0,4.0
# From MPEC 2021-F20
200P/Larsen,e,12.0988,234.7748,134.1642,4.943044,0.0896835,0.33267880,79.5918,01/02.0/2022,2000,g  9.0,4.0
# From MPC 93588
201P/LONEOS,e,5.7391,19.7462,41.5480,3.354417,0.1604274,0.63709794,35.3445,01/02.0/2022,2000,g 14.0,4.0
# From MPEC 2021-N06
202P/Scotti,e,2.1025,177.6249,276.8576,4.078268,0.1196714,0.26267260,255.6072,01/02.0/2022,2000,g 13.5,4.0
# From MPEC 2021-S45
203P/Korlevic,e,2.9727,290.3309,154.7878,4.670523,0.0976463,0.31529611,65.2601,01/02.0/2022,2000,g 14.5,2.0
# From MPC 98566
204P/LINEAR-NEAT,e,6.5963,108.5257,356.5353,3.585013,0.1452005,0.48806385,313.7275,01/02.0/2022,2000,g 14.0,4.0
# From MPEC 2021-W31
205P/Giacobini,e,15.3055,179.6025,154.1962,3.543702,0.1477469,0.56821706,358.2681,01/02.0/2022,2000,g 13.0,4.0
# From MPC 75725
206P/Barnard-Boattini,e,33.6340,202.3398,189.4942,3.488633,0.1512589,0.55143182,45.9023,01/02.0/2022,2000,g 19.0,4.0
# From MPC 75725
207P/NEAT,e,10.1917,198.2614,273.0427,3.873352,0.1292926,0.75889562,261.7607,01/02.0/2022,2000,g 16.0,4.0
# From MPEC 2020-W26
208P/McMillan,e,4.4117,36.3410,310.5004,4.044271,0.1211836,0.37403732,243.1364,01/02.0/2022,2000,g 12.5,4.0
# From MPC 90771
209P/LINEAR,e,21.2554,62.7743,152.4517,2.959947,0.1935433,0.67302885,180.9050,01/02.0/2022,2000,g 17.0,2.0
# From MPC105242
210P/Christensen,e,10.2653,93.8229,345.8936,3.163760,0.1751455,0.83331050,111.0589,01/02.0/2022,2000,g 13.5,4.0
# From MPEC 2021-WD8
211P/Hill,e,18.9213,117.1316,4.2737,3.545977,0.1476047,0.34355346,319.3201,01/02.0/2022,2000,g 12.5,4.0
# From MPEC 2021-F20
212P/NEAT,e,22.1991,98.2207,14.0767,3.891725,0.1283781,0.58764297,251.6181,01/02.0/2022,2000,g 17.0,2.0
# From MPC114608
213P/Van Ness,e,10.3815,311.2953,5.6762,3.347269,0.1609416,0.40825284,250.8426,01/02.0/2022,2000,g 10.5,4.0
# From MPC 92986
214P/LINEAR,e,15.1834,348.2492,190.2075,3.619044,0.1431572,0.48583255,321.7380,01/02.0/2022,2000,g 13.0,4.0
# From MPEC 2021-Y10
215P/NEAT,e,10.5796,56.6854,262.2645,4.328992,0.1094268,0.16665805,84.7820,01/02.0/2022,2000,g 11.0,4.0
# From MPC100284
216P/LINEAR,e,9.0641,359.8114,151.4027,3.866048,0.1296592,0.44751528,264.7131,01/02.0/2022,2000,g 13.0,4.0
# From MPEC 2021-N06
217P/LINEAR,e,12.8635,125.4664,246.8670,3.949966,0.1255492,0.68902493,204.4909,01/02.0/2022,2000,g 12.0,4.0
# From MPEC 2020-K19
218P/LINEAR,e,2.7284,175.9739,59.6994,3.091816,0.1812941,0.62222975,82.5268,01/02.0/2022,2000,g 16.0,4.0
# From MPC100284
219P/LINEAR,e,11.5348,230.9578,107.4846,3.648703,0.1414153,0.35409926,250.7665,01/02.0/2022,2000,g 11.0,4.0
# From MPEC 2021-BE3
220P/McNaught,e,8.1288,150.1017,180.5591,3.116281,0.1791634,0.50168144,69.4008,01/02.0/2022,2000,g 15.0,4.0
# From MPEC 2021-J28
221P/LINEAR,e,11.4277,229.7028,40.1177,3.455435,0.1534440,0.49264553,2.2903,01/02.0/2022,2000,g 14.5,4.0
# From MPC 92277
222P/LINEAR,e,5.0982,6.7766,346.2573,2.899224,0.1996555,0.71474267,187.9648,01/02.0/2022,2000,g 20.0,4.0
# From MPEC 2021-S45
223P/Skiff,e,27.0264,346.7706,37.8212,4.158974,0.1162050,0.41621031,124.3539,01/02.0/2022,2000,g 12.0,4.0
# From MPC 75727
224P/LINEAR-NEAT,e,13.2990,40.0721,16.6434,3.447072,0.1540028,0.40662734,318.2789,01/02.0/2022,2000,g 15.5,4.0
# From MPC 75727
225P/LINEAR,e,21.3650,14.2000,3.8819,3.649325,0.1413791,0.63829172,277.5591,01/02.0/2022,2000,g 18.0,4.0
# From MPC106349
226P/Pigott-LINEAR-Kowalski,e,44.0338,54.0044,341.0459,3.766986,0.1348072,0.52871748,262.3493,01/02.0/2022,2000,g 12.5,4.0
# From MPC102956
227P/Catalina-LINEAR,e,6.7374,43.8262,96.1679,3.524213,0.1489741,0.52437679,242.1595,01/02.0/2022,2000,g 16.5,2.0
# From MPEC 2020-L06
228P/LINEAR,e,7.9126,30.9823,115.0608,4.169335,0.1157721,0.17625676,76.8526,01/02.0/2022,2000,g 14.5,2.0
# From MPC106349
229P/Gibbs,e,26.0924,157.9112,223.9833,3.928579,0.1265759,0.37746431,213.3512,01/02.0/2022,2000,g 13.0,4.0
# From MPEC 2021-Y10
230P/LINEAR,e,15.4701,106.9859,313.4240,3.451686,0.1536941,0.54549964,348.2695,01/02.0/2022,2000,g 13.0,4.0
# From MPEC 2021-UA9
231P/LINEAR-NEAT,e,12.3291,133.0171,43.8397,4.035634,0.1215728,0.24613248,112.9883,01/02.0/2022,2000,g 14.1,4.0
# From MPC112394
232P/Hill,e,14.6376,56.0158,53.3335,4.477916,0.1040136,0.33428049,104.2607,01/02.0/2022,2000,g 11.5,4.0
# From MPEC 2021-N06
233P/La Sagra,e,11.2850,74.9167,27.0107,3.029711,0.1868969,0.41186762,85.4873,01/02.0/2022,2000,g 15.0,4.0
# From MPC110497
234P/LINEAR,e,11.5342,179.5679,357.2215,3.799252,0.1330935,0.25537271,223.4248,01/02.0/2022,2000,g 12.0,4.0
# From MPC110497
235P/LINEAR,e,9.0152,203.0252,333.4010,3.952289,0.1254385,0.32736897,173.5552,01/02.0/2022,2000,g 12.0,4.0
# From MPC107688
236P/LINEAR,e,16.3411,245.6009,119.2673,3.729477,0.1368460,0.50917632,205.5703,01/02.0/2022,2000,g 14.0,4.0
# From MPC109593
237P/LINEAR,e,14.0148,245.3770,25.2372,3.512294,0.1497331,0.43434617,285.4926,01/02.0/2022,2000,g 14.5,2.0
# From MPC107688
238P/Read,e,1.2641,51.6238,324.3175,3.168655,0.1747397,0.25235620,332.9537,01/02.0/2022,2000,g 14.5,4.0
# From MPEC 2021-F20
239P/LINEAR,e,11.2981,255.9151,220.4206,4.469361,0.1043124,0.63006987,113.5646,01/02.0/2022,2000,g 17.5,2.0
# From MPEC 2021-F20
240P/NEAT,e,23.5172,74.9090,351.9467,3.865763,0.1296735,0.44925556,172.1122,01/02.0/2022,2000,g 12.1,4.0
# From MPEC 2021-Y10
241P/LINEAR,e,21.1065,305.4840,111.4341,4.917987,0.0903697,0.61008878,14.4733,01/02.0/2022,2000,g 13.5,4.0
# From MPEC 2021-S45
242P/Spahr,e,32.5016,180.3900,245.8343,5.488651,0.0766489,0.27832813,276.1290,01/02.0/2022,2000,g  8.0,4.0
# From MPC111774
243P/NEAT,e,7.6404,87.6256,283.5623,3.830640,0.1314611,0.36036566,160.9079,01/02.0/2022,2000,g 12.5,4.0
# From MPEC 2021-Y10
244P/Scotti,e,2.2594,353.9911,93.0338,4.894843,0.0910114,0.19899714,330.9910,01/02.0/2022,2000,g  9.0,4.0
# From MPEC 2020-K19
245P/WISE,e,21.1961,316.6518,316.8825,4.045563,0.1211255,0.45680611,172.4525,01/02.0/2022,2000,g 14.0,4.0
# From MPEC 2021-WD8
246P/NEAT,e,15.9753,78.7078,176.4782,4.023146,0.1221393,0.28799373,38.1678,01/02.0/2022,2000,g 10.5,4.0
# From MPEC 2021-F20
247P/LINEAR,e,13.6550,54.0139,47.4450,3.968598,0.1246661,0.62429278,140.5823,01/02.0/2022,2000,g 16.5,2.0
# From MPC 75730
248P/Gibbs,e,6.3500,207.7885,209.8535,5.991411,0.0672064,0.63860411,269.0951,01/02.0/2022,2000,g 14.0,4.0
# From MPEC 2021-S45
249P/LINEAR,e,8.3911,239.1389,65.6686,2.763117,0.2145878,0.81999977,118.3465,01/02.0/2022,2000,g 15.5,4.0
# From MPC110497
250P/Larson,e,13.1612,73.4488,46.1588,3.764597,0.1349356,0.39983889,193.7708,01/02.0/2022,2000,g 14.5,4.0
# From MPC104795
251P/LINEAR,e,23.3890,219.3655,31.2862,3.511523,0.1497824,0.50479954,244.3428,01/02.0/2022,2000,g 16.5,2.0
# From MPEC 2021-S45
252P/LINEAR,e,10.4099,190.9439,343.3016,3.049108,0.1851164,0.67186167,32.3411,01/02.0/2022,2000,g 17.5,4.0
# From MPEC 2020-FB5
253P/PANSTARRS,e,4.9435,146.8853,230.6498,3.466010,0.1527423,0.41419299,203.7623,01/02.0/2022,2000,g 14.5,4.0
# From MPEC 2021-Y10
254P/McNaught,e,32.5719,129.1767,219.5580,4.613132,0.0994742,0.31979379,45.6578,01/02.0/2022,2000,g 11.0,4.0
# From MPEC 2021-UA9
255P/Levy,e,13.4173,275.7187,185.9572,2.944200,0.1950981,0.71182262,311.5683,01/02.0/2022,2000,g 14.1,4.0
# From MPC 84027
256P/LINEAR,e,27.6219,81.3459,124.2273,4.638593,0.0986563,0.41798971,317.1449,01/02.0/2022,2000,g 14.0,2.0
# From MPEC 2021-Y10
257P/Catalina,e,20.2214,207.7300,117.6882,3.762572,0.1350445,0.43037382,64.5843,01/02.0/2022,2000,g 11.5,4.0
# From MPEC 2021-U31
258P/PANSTARRS,e,6.7461,126.2454,25.9322,4.397141,0.1068928,0.20847473,60.1322,01/02.0/2022,2000,g 13.0,4.0
# From MPC106349
259P/Garradd,e,15.8905,51.4506,257.6475,2.730223,0.2184776,0.33864790,351.8269,01/02.0/2022,2000,g 15.5,4.0
# From MPEC 2020-SI8
260P/McNaught,e,15.0584,349.3383,18.4183,3.623061,0.1429192,0.60925617,120.7214,01/02.0/2022,2000,g 13.5,4.0
# From MPEC 2021-J28
261P/Larson,e,6.0740,291.1482,67.1872,3.490394,0.1511445,0.42330678,140.2350,01/02.0/2022,2000,g 14.0,4.0
# From MPC 82322
262P/McNaught-Russell,e,29.2475,217.8742,171.0264,6.873392,0.0546950,0.81593541,181.4388,01/02.0/2022,2000,g 13.5,4.0
# From MPC 89018
263P/Gibbs,e,11.5222,105.5802,34.8665,3.045377,0.1854567,0.59339741,287.0134,01/02.0/2022,2000,g  9.0,4.0
# From MPC114608
264P/Larsen,e,25.1864,220.5092,346.7213,3.891495,0.1283895,0.37521626,113.1658,01/02.0/2022,2000,g 13.0,4.0
# From MPC 79870
265P/LINEAR,e,14.3651,342.9257,33.4488,4.253685,0.1123456,0.64754855,36.7275,01/02.0/2022,2000,g 14.5,4.0
# From MPEC 2021-F20
266P/Christensen,e,3.4270,4.9980,97.7363,3.533131,0.1484104,0.33952525,92.4243,01/02.0/2022,2000,g 14.7,4.0
# From MPC114608
267P/LONEOS,e,6.1404,228.5964,114.1837,3.211523,0.1712527,0.61437576,215.5354,01/02.0/2022,2000,g 19.5,4.0
# From MPC 92277
268P/Bernardi,e,16.0251,127.3735,359.8165,4.548260,0.1016099,0.47748501,249.6182,01/02.0/2022,2000,g 14.0,4.0
# From MPC104795
269P/Jedicke,e,7.0756,241.7205,225.7949,7.073812,0.0523870,0.43075981,138.9295,01/02.0/2022,2000,g 10.0,4.0
# From MPC 88332
270P/Gehrels,e,2.9215,222.9975,209.7930,6.663157,0.0573039,0.46802674,179.3654,01/02.0/2022,2000,g  8.0,4.0
# From MPC 92277
271P/van Houten-Lemmon,e,6.8716,9.3150,36.3851,7.040500,0.0527593,0.39481253,163.2452,01/02.0/2022,2000,g 11.0,4.0
# From MPC 81862
272P/NEAT,e,18.0752,109.4699,27.9093,4.458870,0.1046807,0.45453438,339.4727,01/02.0/2022,2000,g 16.0,2.0
# From MPC 82723
273P/Pons-Gambart,e,136.7808,320.4004,20.3294,31.89291,0.0054722,0.97418441,0.0000,12/19.3826/2012,2000,g 11.5,4.0
# From MPEC 2021-Y10
274P/Tombaugh-Tenagra,e,15.8163,81.3407,38.4714,4.374770,0.1077138,0.43924708,349.6080,01/02.0/2022,2000,g 13.0,4.0
